{
  "type": "FeatureCollection",
  "features": [
    {
      "type": "Feature",
      "properties": {
        "norad_id": 66909,
        "name": "SILVERSAT",
        "group": "stations",
        "lat": 11.44396038678825,
        "lon": 126.37873290334208,
        "alt_km": 410.52954033193146,
        "timestamp": "2025-12-17T19:34:06.822890+00:00",
        "meta_object_name": "SILVERSAT",
        "meta_object_id": "1998-067XV",
        "meta_epoch": "2025-12-16T14:08:52.774080",
        "meta_mean_motion": 15.52156791,
        "meta_eccentricity": 0.00040754,
        "meta_inclination": 51.6305,
        "meta_ra_of_asc_node": 123.2468,
        "meta_arg_of_pericenter": 249.7085,
        "meta_mean_anomaly": 110.3467,
        "meta_ephemeris_type": 0,
        "meta_classification_type": "U",
        "meta_norad_cat_id": 66909,
        "meta_element_set_no": 999,
        "meta_rev_at_epoch": 221,
        "meta_bstar": 0.00095917161,
        "meta_mean_motion_dot": 0.00059105,
        "meta_mean_motion_ddot": 0,
        "tle_line1": "1 66909U 98067XV  25350.58949970  .00059105  00000+0  95917-3 0  9999",
        "tle_line2": "2 66909  51.6305 123.2468 0004075 249.7085 110.3467 15.52156791  2218"
      },
      "geometry": {
        "type": "Point",
        "coordinates": [
          126.37873290334208,
          11.44396038678825
        ]
      }
    },
    {
      "type": "Feature",
      "properties": {
        "norad_id": 66910,
        "name": "1998-067XW",
        "group": "stations",
        "lat": 18.981799011761407,
        "lon": 132.94615823330292,
        "alt_km": 410.46885148325964,
        "timestamp": "2025-12-17T19:34:06.822900+00:00",
        "meta_object_name": "1998-067XW",
        "meta_object_id": "1998-067XW",
        "meta_epoch": "2025-12-17T08:38:52.886112",
        "meta_mean_motion": 15.52302683,
        "meta_eccentricity": 0.00044955,
        "meta_inclination": 51.6301,
        "meta_ra_of_asc_node": 119.3949,
        "meta_arg_of_pericenter": 232.9871,
        "meta_mean_anomaly": 127.0708,
        "meta_ephemeris_type": 0,
        "meta_classification_type": "U",
        "meta_norad_cat_id": 66910,
        "meta_element_set_no": 999,
        "meta_rev_at_epoch": 233,
        "meta_bstar": 0.00084033586,
        "meta_mean_motion_dot": 0.00051954,
        "meta_mean_motion_ddot": 0,
        "tle_line1": "1 66910U 98067XW  25351.36033433  .00051954  00000+0  84034-3 0  9998",
        "tle_line2": "2 66910  51.6301 119.3949 0004495 232.9871 127.0708 15.52302683  2338"
      },
      "geometry": {
        "type": "Point",
        "coordinates": [
          132.94615823330292,
          18.981799011761407
        ]
      }
    },
    {
      "type": "Feature",
      "properties": {
        "norad_id": 66911,
        "name": "1998-067XX",
        "group": "stations",
        "lat": 26.257424253053504,
        "lon": 140.11675099013198,
        "alt_km": 408.2721212011402,
        "timestamp": "2025-12-17T19:34:06.822910+00:00",
        "meta_object_name": "1998-067XX",
        "meta_object_id": "1998-067XX",
        "meta_epoch": "2025-12-16T21:47:43.238976",
        "meta_mean_motion": 15.52613586,
        "meta_eccentricity": 0.00043348,
        "meta_inclination": 51.6301,
        "meta_ra_of_asc_node": 121.625,
        "meta_arg_of_pericenter": 233.1446,
        "meta_mean_anomaly": 126.9147,
        "meta_ephemeris_type": 0,
        "meta_classification_type": "U",
        "meta_norad_cat_id": 66911,
        "meta_element_set_no": 999,
        "meta_rev_at_epoch": 225,
        "meta_bstar": 0.0010270011,
        "meta_mean_motion_dot": 0.00064419,
        "meta_mean_motion_ddot": 0,
        "tle_line1": "1 66911U 98067XX  25350.90813934  .00064419  00000+0  10270-2 0  9990",
        "tle_line2": "2 66911  51.6301 121.6250 0004334 233.1446 126.9147 15.52613586  2256"
      },
      "geometry": {
        "type": "Point",
        "coordinates": [
          140.11675099013198,
          26.257424253053504
        ]
      }
    },
    {
      "type": "Feature",
      "properties": {
        "norad_id": 66912,
        "name": "1998-067XY",
        "group": "stations",
        "lat": -4.298241672611702,
        "lon": 113.77755390012126,
        "alt_km": 414.03603823143294,
        "timestamp": "2025-12-17T19:34:06.822922+00:00",
        "meta_object_name": "1998-067XY",
        "meta_object_id": "1998-067XY",
        "meta_epoch": "2025-12-16T15:46:04.337760",
        "meta_mean_motion": 15.51521639,
        "meta_eccentricity": 0.00042238,
        "meta_inclination": 51.6299,
        "meta_ra_of_asc_node": 122.9476,
        "meta_arg_of_pericenter": 244.4597,
        "meta_mean_anomaly": 115.5956,
        "meta_ephemeris_type": 0,
        "meta_classification_type": "U",
        "meta_norad_cat_id": 66912,
        "meta_element_set_no": 999,
        "meta_rev_at_epoch": 221,
        "meta_bstar": 0.00074796807,
        "meta_mean_motion_dot": 0.00044864,
        "meta_mean_motion_ddot": 0,
        "tle_line1": "1 66912U 98067XY  25350.65699465  .00044864  00000+0  74797-3 0  9991",
        "tle_line2": "2 66912  51.6299 122.9476 0004223 244.4597 115.5956 15.51521639  2210"
      },
      "geometry": {
        "type": "Point",
        "coordinates": [
          113.77755390012126,
          -4.298241672611702
        ]
      }
    }
  ]
}